{
  "type": "FeatureCollection",
  "features": [
    {
      "type": "Feature",
      "properties": {
        "norad_id": 64694,
        "name": "GOSAT-GW (IBUKI GW)",
        "group": "resource",
        "lat": -72.92770154170306,
        "lon": 88.44785339346804,
        "alt_km": 677.1617530234107,
        "timestamp": "2025-12-26T14:28:47.347146+00:00",
        "meta_object_name": "GOSAT-GW (IBUKI GW)",
        "meta_object_id": "2025-141A",
        "meta_epoch": "2025-12-26T06:46:35.840928",
        "meta_mean_motion": 14.67562258,
        "meta_eccentricity": 0.00014269,
        "meta_inclination": 98.044,
        "meta_ra_of_asc_node": 295.5507,
        "meta_arg_of_pericenter": 82.3167,
        "meta_mean_anomaly": 277.82,
        "meta_ephemeris_type": 0,
        "meta_classification_type": "U",
        "meta_norad_cat_id": 64694,
        "meta_element_set_no": 999,
        "meta_rev_at_epoch": 2648,
        "meta_bstar": 0.00019927816,
        "meta_mean_motion_dot": 1.083e-05,
        "meta_mean_motion_ddot": 0,
        "tle_line1": "1 64694U 25141A   25360.28235927  .00001083  00000+0  19928-3 0  9999",
        "tle_line2": "2 64694  98.0440 295.5507 0001426  82.3167 277.8200 14.67562258 26481"
      },
      "geometry": {
        "type": "Point",
        "coordinates": [
          88.44785339346804,
          -72.92770154170306
        ]
      }
    },
    {
      "type": "Feature",
      "properties": {
        "norad_id": 64876,
        "name": "IONOSFERA-M 3",
        "group": "resource",
        "lat": 59.500072861427974,
        "lon": 156.9293989927494,
        "alt_km": 814.4999977478647,
        "timestamp": "2025-12-26T14:28:47.347156+00:00",
        "meta_object_name": "IONOSFERA-M 3",
        "meta_object_id": "2025-155A",
        "meta_epoch": "2025-12-26T07:09:46.946592",
        "meta_mean_motion": 14.21444307,
        "meta_eccentricity": 0.00018002,
        "meta_inclination": 98.5801,
        "meta_ra_of_asc_node": 321.782,
        "meta_arg_of_pericenter": 38.1512,
        "meta_mean_anomaly": 321.9793,
        "meta_ephemeris_type": 0,
        "meta_classification_type": "U",
        "meta_norad_cat_id": 64876,
        "meta_element_set_no": 999,
        "meta_rev_at_epoch": 2184,
        "meta_bstar": 6.3014499e-05,
        "meta_mean_motion_dot": 9.5e-07,
        "meta_mean_motion_ddot": 0,
        "tle_line1": "1 64876U 25155A   25360.29846003  .00000095  00000+0  63014-4 0  9998",
        "tle_line2": "2 64876  98.5801 321.7820 0001800  38.1512 321.9793 14.21444307 21845"
      },
      "geometry": {
        "type": "Point",
        "coordinates": [
          156.9293989927494,
          59.500072861427974
        ]
      }
    },
    {
      "type": "Feature",
      "properties": {
        "norad_id": 64877,
        "name": "IONOSFERA-M 4",
        "group": "resource",
        "lat": -58.961554227950415,
        "lon": -23.472261825667417,
        "alt_km": 827.8670424762113,
        "timestamp": "2025-12-26T14:28:47.347166+00:00",
        "meta_object_name": "IONOSFERA-M 4",
        "meta_object_id": "2025-155B",
        "meta_epoch": "2025-12-26T06:18:54.005184",
        "meta_mean_motion": 14.21445437,
        "meta_eccentricity": 0.0001247,
        "meta_inclination": 98.5802,
        "meta_ra_of_asc_node": 321.667,
        "meta_arg_of_pericenter": 51.0355,
        "meta_mean_anomaly": 309.0934,
        "meta_ephemeris_type": 0,
        "meta_classification_type": "U",
        "meta_norad_cat_id": 64877,
        "meta_element_set_no": 999,
        "meta_rev_at_epoch": 2183,
        "meta_bstar": 6.3255768e-05,
        "meta_mean_motion_dot": 9.6e-07,
        "meta_mean_motion_ddot": 0,
        "tle_line1": "1 64877U 25155B   25360.26312506  .00000096  00000+0  63256-4 0  9991",
        "tle_line2": "2 64877  98.5802 321.6670 0001247  51.0355 309.0934 14.21445437 21831"
      },
      "geometry": {
        "type": "Point",
        "coordinates": [
          -23.472261825667417,
          -58.961554227950415
        ]
      }
    },
    {
      "type": "Feature",
      "properties": {
        "norad_id": 64899,
        "name": "MICROCARB",
        "group": "resource",
        "lat": 79.32987931027655,
        "lon": -55.98579691107772,
        "alt_km": 634.7209739306809,
        "timestamp": "2025-12-26T14:28:47.347177+00:00",
        "meta_object_name": "MICROCARB",
        "meta_object_id": "2025-156A",
        "meta_epoch": "2025-12-26T05:53:04.779744",
        "meta_mean_motion": 14.72078556,
        "meta_eccentricity": 0.0017664,
        "meta_inclination": 98.0009,
        "meta_ra_of_asc_node": 75.3732,
        "meta_arg_of_pericenter": 104.3556,
        "meta_mean_anomaly": 255.9614,
        "meta_ephemeris_type": 0,
        "meta_classification_type": "U",
        "meta_norad_cat_id": 64899,
        "meta_element_set_no": 999,
        "meta_rev_at_epoch": 2252,
        "meta_bstar": 0.00012908325,
        "meta_mean_motion_dot": 7.64e-06,
        "meta_mean_motion_ddot": 0,
        "tle_line1": "1 64899U 25156A   25360.24519421  .00000764  00000+0  12908-3 0  9998",
        "tle_line2": "2 64899  98.0009  75.3732 0017664 104.3556 255.9614 14.72078556 22527"
      },
      "geometry": {
        "type": "Point",
        "coordinates": [
          -55.98579691107772,
          79.32987931027655
        ]
      }
    },
    {
      "type": "Feature",
      "properties": {
        "norad_id": 64900,
        "name": "CO3D 3",
        "group": "resource",
        "lat": 16.457552576402698,
        "lon": 74.56110548221781,
        "alt_km": 505.3732269074708,
        "timestamp": "2025-12-26T14:28:47.347187+00:00",
        "meta_object_name": "CO3D 3",
        "meta_object_id": "2025-156B",
        "meta_epoch": "2025-12-26T06:30:29.771424",
        "meta_mean_motion": 15.20198691,
        "meta_eccentricity": 0.00012956,
        "meta_inclination": 97.4344,
        "meta_ra_of_asc_node": 76.4444,
        "meta_arg_of_pericenter": 67.2475,
        "meta_mean_anomaly": 292.8897,
        "meta_ephemeris_type": 0,
        "meta_classification_type": "U",
        "meta_norad_cat_id": 64900,
        "meta_element_set_no": 999,
        "meta_rev_at_epoch": 2326,
        "meta_bstar": 1.9582185e-05,
        "meta_mean_motion_dot": 3.56e-06,
        "meta_mean_motion_ddot": 0,
        "tle_line1": "1 64900U 25156B   25360.27117791  .00000356  00000+0  19582-4 0  9991",
        "tle_line2": "2 64900  97.4344  76.4444 0001295  67.2475 292.8897 15.20198691 23269"
      },
      "geometry": {
        "type": "Point",
        "coordinates": [
          74.56110548221781,
          16.457552576402698
        ]
      }
    },
    {
      "type": "Feature",
      "properties": {
        "norad_id": 64901,
        "name": "CO3D 4",
        "group": "resource",
        "lat": 15.600478241776859,
        "lon": 74.68235955238568,
        "alt_km": 506.73384559170245,
        "timestamp": "2025-12-26T14:28:47.347198+00:00",
        "meta_object_name": "CO3D 4",
        "meta_object_id": "2025-156C",
        "meta_epoch": "2025-12-26T06:30:43.267104",
        "meta_mean_motion": 15.20193764,
        "meta_eccentricity": 0.00013815,
        "meta_inclination": 97.4337,
        "meta_ra_of_asc_node": 76.4444,
        "meta_arg_of_pericenter": 149.4206,
        "meta_mean_anomaly": 210.711,
        "meta_ephemeris_type": 0,
        "meta_classification_type": "U",
        "meta_norad_cat_id": 64901,
        "meta_element_set_no": 999,
        "meta_rev_at_epoch": 2326,
        "meta_bstar": 0.0002417136,
        "meta_mean_motion_dot": 5.167e-05,
        "meta_mean_motion_ddot": 0,
        "tle_line1": "1 64901U 25156C   25360.27133411  .00005167  00000+0  24171-3 0  9993",
        "tle_line2": "2 64901  97.4337  76.4444 0001381 149.4206 210.7110 15.20193764 23266"
      },
      "geometry": {
        "type": "Point",
        "coordinates": [
          74.68235955238568,
          15.600478241776859
        ]
      }
    },
    {
      "type": "Feature",
      "properties": {
        "norad_id": 64902,
        "name": "CO3D 2",
        "group": "resource",
        "lat": -18.22175496484323,
        "lon": -105.79330032400327,
        "alt_km": 510.7557506879439,
        "timestamp": "2025-12-26T14:28:47.347208+00:00",
        "meta_object_name": "CO3D 2",
        "meta_object_id": "2025-156D",
        "meta_epoch": "2025-12-26T07:17:29.108832",
        "meta_mean_motion": 15.20198684,
        "meta_eccentricity": 7.794e-05,
        "meta_inclination": 97.434,
        "meta_ra_of_asc_node": 76.3751,
        "meta_arg_of_pericenter": 60.5448,
        "meta_mean_anomaly": 299.5865,
        "meta_ephemeris_type": 0,
        "meta_classification_type": "U",
        "meta_norad_cat_id": 64902,
        "meta_element_set_no": 999,
        "meta_rev_at_epoch": 2326,
        "meta_bstar": 0.00014494844,
        "meta_mean_motion_dot": 3.071e-05,
        "meta_mean_motion_ddot": 0,
        "tle_line1": "1 64902U 25156D   25360.30380913  .00003071  00000+0  14495-3 0  9999",
        "tle_line2": "2 64902  97.4340  76.3751 0000779  60.5448 299.5865 15.20198684 23260"
      },
      "geometry": {
        "type": "Point",
        "coordinates": [
          -105.79330032400327,
          -18.22175496484323
        ]
      }
    }
  ]
}